{
  "type": "FeatureCollection",
  "features": [
    {
      "type": "Feature",
      "properties": {
        "norad_id": 58647,
        "name": "TIANMU-1 13",
        "group": "weather",
        "lat": -26.795874296741232,
        "lon": -171.9178312647822,
        "alt_km": 494.36469349622075,
        "timestamp": "2025-12-18T07:01:54.230053+00:00",
        "meta_object_name": "TIANMU-1 13",
        "meta_object_id": "2023-205C",
        "meta_epoch": "2025-12-17T23:49:32.193408",
        "meta_mean_motion": 15.24590933,
        "meta_eccentricity": 0.00061707,
        "meta_inclination": 97.3615,
        "meta_ra_of_asc_node": 11.5309,
        "meta_arg_of_pericenter": 243.3,
        "meta_mean_anomaly": 116.7606,
        "meta_ephemeris_type": 0,
        "meta_classification_type": "U",
        "meta_norad_cat_id": 58647,
        "meta_element_set_no": 999,
        "meta_rev_at_epoch": 10987,
        "meta_bstar": 0.00022360043,
        "meta_mean_motion_dot": 5.443e-05,
        "meta_mean_motion_ddot": 0,
        "tle_line1": "1 58647U 23205C   25351.99273372  .00005443  00000+0  22360-3 0  9991",
        "tle_line2": "2 58647  97.3615  11.5309 0006170 243.3000 116.7606 15.24590933109871"
      },
      "geometry": {
        "type": "Point",
        "coordinates": [
          -171.9178312647822,
          -26.795874296741232
        ]
      }
    },
    {
      "type": "Feature",
      "properties": {
        "norad_id": 58648,
        "name": "TIANMU-1 14",
        "group": "weather",
        "lat": -61.442786532172754,
        "lon": 24.898496670906056,
        "alt_km": 496.1489051280323,
        "timestamp": "2025-12-18T07:01:54.230069+00:00",
        "meta_object_name": "TIANMU-1 14",
        "meta_object_id": "2023-205D",
        "meta_epoch": "2025-12-17T23:25:42.826368",
        "meta_mean_motion": 15.24573658,
        "meta_eccentricity": 0.00069209,
        "meta_inclination": 97.3548,
        "meta_ra_of_asc_node": 10.8586,
        "meta_arg_of_pericenter": 249.6712,
        "meta_mean_anomaly": 110.3783,
        "meta_ephemeris_type": 0,
        "meta_classification_type": "U",
        "meta_norad_cat_id": 58648,
        "meta_element_set_no": 999,
        "meta_rev_at_epoch": 10987,
        "meta_bstar": 0.00020390134,
        "meta_mean_motion_dot": 4.955e-05,
        "meta_mean_motion_ddot": 0,
        "tle_line1": "1 58648U 23205D   25351.97619012  .00004955  00000+0  20390-3 0  9993",
        "tle_line2": "2 58648  97.3548  10.8586 0006920 249.6712 110.3783 15.24573658109879"
      },
      "geometry": {
        "type": "Point",
        "coordinates": [
          24.898496670906056,
          -61.442786532172754
        ]
      }
    },
    {
      "type": "Feature",
      "properties": {
        "norad_id": 58660,
        "name": "TIANMU-1 19",
        "group": "weather",
        "lat": -77.31810414198883,
        "lon": -112.17716154124864,
        "alt_km": 486.75643473051696,
        "timestamp": "2025-12-18T07:01:54.230085+00:00",
        "meta_object_name": "TIANMU-1 19",
        "meta_object_id": "2023-208A",
        "meta_epoch": "2025-12-17T22:02:23.065728",
        "meta_mean_motion": 15.279437,
        "meta_eccentricity": 0.00043286,
        "meta_inclination": 97.4391,
        "meta_ra_of_asc_node": 102.9454,
        "meta_arg_of_pericenter": 229.6705,
        "meta_mean_anomaly": 130.4156,
        "meta_ephemeris_type": 0,
        "meta_classification_type": "U",
        "meta_norad_cat_id": 58660,
        "meta_element_set_no": 999,
        "meta_rev_at_epoch": 10961,
        "meta_bstar": 0.00029458763,
        "meta_mean_motion_dot": 7.961e-05,
        "meta_mean_motion_ddot": 0,
        "tle_line1": "1 58660U 23208A   25351.91832252  .00007961  00000+0  29459-3 0  9992",
        "tle_line2": "2 58660  97.4391 102.9454 0004328 229.6705 130.4156 15.27943700109618"
      },
      "geometry": {
        "type": "Point",
        "coordinates": [
          -112.17716154124864,
          -77.31810414198883
        ]
      }
    },
    {
      "type": "Feature",
      "properties": {
        "norad_id": 58661,
        "name": "TIANMU-1 20",
        "group": "weather",
        "lat": -2.3857639882064174,
        "lon": 104.08398398697943,
        "alt_km": 483.665713118442,
        "timestamp": "2025-12-18T07:01:54.230101+00:00",
        "meta_object_name": "TIANMU-1 20",
        "meta_object_id": "2023-208B",
        "meta_epoch": "2025-12-17T23:11:22.596864",
        "meta_mean_motion": 15.29134463,
        "meta_eccentricity": 0.00064498,
        "meta_inclination": 97.4329,
        "meta_ra_of_asc_node": 103.4459,
        "meta_arg_of_pericenter": 243.7705,
        "meta_mean_anomaly": 116.2873,
        "meta_ephemeris_type": 0,
        "meta_classification_type": "U",
        "meta_norad_cat_id": 58661,
        "meta_element_set_no": 999,
        "meta_rev_at_epoch": 10969,
        "meta_bstar": 0.00026494302,
        "meta_mean_motion_dot": 7.42e-05,
        "meta_mean_motion_ddot": 0,
        "tle_line1": "1 58661U 23208B   25351.96623376  .00007420  00000+0  26494-3 0  9999",
        "tle_line2": "2 58661  97.4329 103.4459 0006449 243.7705 116.2873 15.29134463109690"
      },
      "geometry": {
        "type": "Point",
        "coordinates": [
          104.08398398697943,
          -2.3857639882064174
        ]
      }
    },
    {
      "type": "Feature",
      "properties": {
        "norad_id": 58662,
        "name": "TIANMU-1 21",
        "group": "weather",
        "lat": 51.970484589036616,
        "lon": 96.09024353819429,
        "alt_km": 470.19409766242916,
        "timestamp": "2025-12-18T07:01:54.230119+00:00",
        "meta_object_name": "TIANMU-1 21",
        "meta_object_id": "2023-208C",
        "meta_epoch": "2025-12-17T22:57:46.745856",
        "meta_mean_motion": 15.31661281,
        "meta_eccentricity": 0.00060545,
        "meta_inclination": 97.4378,
        "meta_ra_of_asc_node": 105.3683,
        "meta_arg_of_pericenter": 238.1541,
        "meta_mean_anomaly": 121.9111,
        "meta_ephemeris_type": 0,
        "meta_classification_type": "U",
        "meta_norad_cat_id": 58662,
        "meta_element_set_no": 999,
        "meta_rev_at_epoch": 10979,
        "meta_bstar": 0.00030027421,
        "meta_mean_motion_dot": 9.108e-05,
        "meta_mean_motion_ddot": 0,
        "tle_line1": "1 58662U 23208C   25351.95679104  .00009108  00000+0  30027-3 0  9991",
        "tle_line2": "2 58662  97.4378 105.3683 0006054 238.1541 121.9111 15.31661281109798"
      },
      "geometry": {
        "type": "Point",
        "coordinates": [
          96.09024353819429,
          51.970484589036616
        ]
      }
    },
    {
      "type": "Feature",
      "properties": {
        "norad_id": 58663,
        "name": "TIANMU-1 22",
        "group": "weather",
        "lat": -74.10282039480296,
        "lon": -103.93028557934994,
        "alt_km": 488.18762107386647,
        "timestamp": "2025-12-18T07:01:54.230135+00:00",
        "meta_object_name": "TIANMU-1 22",
        "meta_object_id": "2023-208D",
        "meta_epoch": "2025-12-17T22:03:17.140896",
        "meta_mean_motion": 15.27691418,
        "meta_eccentricity": 0.00026907,
        "meta_inclination": 97.4385,
        "meta_ra_of_asc_node": 103.0027,
        "meta_arg_of_pericenter": 259.2645,
        "meta_mean_anomaly": 100.8292,
        "meta_ephemeris_type": 0,
        "meta_classification_type": "U",
        "meta_norad_cat_id": 58663,
        "meta_element_set_no": 999,
        "meta_rev_at_epoch": 10962,
        "meta_bstar": 0.00027439467,
        "meta_mean_motion_dot": 7.352e-05,
        "meta_mean_motion_ddot": 0,
        "tle_line1": "1 58663U 23208D   25351.91894839  .00007352  00000+0  27439-3 0  9994",
        "tle_line2": "2 58663  97.4385 103.0027 0002690 259.2645 100.8292 15.27691418109623"
      },
      "geometry": {
        "type": "Point",
        "coordinates": [
          -103.93028557934994,
          -74.10282039480296
        ]
      }
    },
    {
      "type": "Feature",
      "properties": {
        "norad_id": 58700,
        "name": "TIANMU-1 15",
        "group": "weather",
        "lat": -38.09582324522045,
        "lon": 179.63941689015948,
        "alt_km": 496.46329970154693,
        "timestamp": "2025-12-18T07:01:54.230153+00:00",
        "meta_object_name": "TIANMU-1 15",
        "meta_object_id": "2024-004A",
        "meta_epoch": "2025-12-17T23:19:24.809952",
        "meta_mean_motion": 15.24475659,
        "meta_eccentricity": 0.00059512,
        "meta_inclination": 97.4621,
        "meta_ra_of_asc_node": 173.4216,
        "meta_arg_of_pericenter": 268.3018,
        "meta_mean_anomaly": 91.7537,
        "meta_ephemeris_type": 0,
        "meta_classification_type": "U",
        "meta_norad_cat_id": 58700,
        "meta_element_set_no": 999,
        "meta_rev_at_epoch": 10814,
        "meta_bstar": 0.0002424887,
        "meta_mean_motion_dot": 5.887e-05,
        "meta_mean_motion_ddot": 0,
        "tle_line1": "1 58700U 24004A   25351.97181493  .00005887  00000+0  24249-3 0  9999",
        "tle_line2": "2 58700  97.4621 173.4216 0005951 268.3018  91.7537 15.24475659108147"
      },
      "geometry": {
        "type": "Point",
        "coordinates": [
          179.63941689015948,
          -38.09582324522045
        ]
      }
    }
  ]
}